CTC1_L_00136016-03
1 10748U 22315GE  26070.40832176  .00000000  00000+0  00000-0 0  9998
2 10748  60.0000 180.0000 0000000   0.0000   0.0000 14.15679949    13
CTC1_L_00136016-04
1 10749U 22869YU  26070.40832176  .00000000  00000+0  00000-0 0  9993
2 10749  60.0000 180.0000 0000000   0.0000  90.0000 14.15679949    13
CTC1_L_00136017-01
1 10750U 22802HY  26070.40832176  .00000000  00000+0  00000-0 0  9992
2 10750  60.0000 192.0000 0000000   0.0000 192.0000 14.15679949    11
CTC1_L_00136017-02
1 10751U 22277CW  26070.40832176  .00000000  00000+0  00000-0 0  9999
2 10751  60.0000 192.0000 0000000   0.0000 282.0000 14.15679949    12
CTC1_L_00136017-03
1 10752U 26970YQ  26070.40832176  .00000000  00000+0  00000-0 0  9994
2 10752  60.0000 192.0000 0000000   0.0000  12.0000 14.15679949    14
CTC1_L_00136017-04
1 10753U 24520ZE  26070.40832176  .00000000  00000+0  00000-0 0  9994
2 10753  60.0000 192.0000 0000000   0.0000 102.0000 14.15679949    15
CTC1_L_00136018-01
1 10754U 25291DN  26070.40832176  .00000000  00000+0  00000-0 0  9991
2 10754  60.0000 204.0000 0000000   0.0000 204.0000 14.15679949    13
CTC1_L_00136018-02
1 10755U 24751FP  26070.40832176  .00000000  00000+0  00000-0 0  9992
2 10755  60.0000 204.0000 0000000   0.0000 294.0000 14.15679949    13
CTC1_L_00136018-03
1 10756U 22338X   26070.40832176  .00000000  00000+0  00000-0 0  9992
2 10756  60.0000 204.0000 0000000   0.0000  24.0000 14.15679949    15
CTC1_L_00136018-04
1 10757U 26264AT  26070.40832176  .00000000  00000+0  00000-0 0  9995
2 10757  60.0000 204.0000 0000000   0.0000 114.0000 14.15679949    16
CTC1_L_00136019-01
1 10758U 23335GF  26070.40832176  .00000000  00000+0  00000-0 0  9992
2 10758  60.0000 216.0000 0000000   0.0000 216.0000 14.15679949    13
CTC1_L_00136019-02
1 10759U 25594W   26070.40832176  .00000000  00000+0  00000-0 0  9992
2 10759  60.0000 216.0000 0000000   0.0000 306.0000 14.15679949    14
CTC1_L_00136019-03
1 10760U 23833KK  26070.40832176  .00000000  00000+0  00000-0 0  9998
2 10760  60.0000 216.0000 0000000   0.0000  36.0000 14.15679949    16
CTC1_L_00136019-04
1 10761U 24450AE  26070.40832176  .00000000  00000+0  00000-0 0  9995
2 10761  60.0000 216.0000 0000000   0.0000 126.0000 14.15679949    17
CTC1_L_00136020-01
1 10762U 24826T   26070.40832176  .00000000  00000+0  00000-0 0  9993
2 10762  60.0000 228.0000 0000000   0.0000 228.0000 14.15679949    14
CTC1_L_00136020-02
1 10763U 23119HR  26070.40832176  .00000000  00000+0  00000-0 0  9998
2 10763  60.0000 228.0000 0000000   0.0000 318.0000 14.15679949    15
CTC1_L_00136020-03
1 10764U 22560UR  26070.40832176  .00000000  00000+0  00000-0 0  9998
2 10764  60.0000 228.0000 0000000   0.0000  48.0000 14.15679949    16
CTC1_L_00136020-04
1 10765U 22386OA  26070.40832176  .00000000  00000+0  00000-0 0  9995
2 10765  60.0000 228.0000 0000000   0.0000 138.0000 14.15679949    17
CTC1_L_00136021-01
1 10766U 22988GH  26070.40832176  .00000000  00000+0  00000-0 0  9994
2 10766  60.0000 240.0000 0000000   0.0000 240.0000 14.15679949    16
CTC1_L_00136021-02
1 10767U 23541OA  26070.40832176  .00000000  00000+0  00000-0 0  9991
2 10767  60.0000 240.0000 0000000   0.0000 330.0000 14.15679949    17
CTC1_L_00136021-03
1 10768U 26438SV  26070.40832176  .00000000  00000+0  00000-0 0  9990
2 10768  60.0000 240.0000 0000000   0.0000  60.0000 14.15679949    18
CTC1_L_00136021-04
1 10769U 26736MS  26070.40832176  .00000000  00000+0  00000-0 0  9992
2 10769  60.0000 240.0000 0000000   0.0000 150.0000 14.15679949    19
CTC1_L_00136022-01
1 10770U 22865QJ  26070.40832176  .00000000  00000+0  00000-0 0  9993
2 10770  60.0000 252.0000 0000000   0.0000 252.0000 14.15679949    17
CTC1_L_00136022-02
1 10771U 22572AH  26070.40832176  .00000000  00000+0  00000-0 0  9999
2 10771  60.0000 252.0000 0000000   0.0000 342.0000 14.15679949    18
CTC1_L_00136022-03
1 10772U 24767BE  26070.40832176  .00000000  00000+0  00000-0 0  9998
2 10772  60.0000 252.0000 0000000   0.0000  72.0000 14.15679949    19
CTC1_L_00136022-04
1 10773U 26939QH  26070.40832176  .00000000  00000+0  00000-0 0  9992
2 10773  60.0000 252.0000 0000000   0.0000 162.0000 14.15679949    10
CTC1_L_00136023-01
1 10774U 23488M   26070.40832176  .00000000  00000+0  00000-0 0  9999
2 10774  60.0000 264.0000 0000000   0.0000 264.0000 14.15679949    17
CTC1_L_00136023-02
1 10775U 23262MK  26070.40832176  .00000000  00000+0  00000-0 0  9990
2 10775  60.0000 264.0000 0000000   0.0000 354.0000 14.15679949    18
CTC1_L_00136023-03
1 10776U 24418RF  26070.40832176  .00000000  00000+0  00000-0 0  9995
2 10776  60.0000 264.0000 0000000   0.0000  84.0000 14.15679949    19
CTC1_L_00136023-04
1 10777U 23976FQ  26070.40832176  .00000000  00000+0  00000-0 0  9994
2 10777  60.0000 264.0000 0000000   0.0000 174.0000 14.15679949    10
CTC1_L_00136024-01
1 10778U 23951SO  26070.40832176  .00000000  00000+0  00000-0 0  9998
2 10778  60.0000 276.0000 0000000   0.0000 276.0000 14.15679949    17
CTC1_L_00136024-02
1 10779U 22881AN  26070.40832176  .00000000  00000+0  00000-0 0  9990
2 10779  60.0000 276.0000 0000000   0.0000   6.0000 14.15679949    19
CTC1_L_00136024-03
1 10780U 25729MN  26070.40832176  .00000000  00000+0  00000-0 0  9996
2 10780  60.0000 276.0000 0000000   0.0000  96.0000 14.15679949    10
CTC1_L_00136024-04
1 10781U 23505QM  26070.40832176  .00000000  00000+0  00000-0 0  9997
2 10781  60.0000 276.0000 0000000   0.0000 186.0000 14.15679949    11
CTC1_L_00136025-01
1 10782U 25512J   26070.40832176  .00000000  00000+0  00000-0 0  9998
2 10782  60.0000 288.0000 0000000   0.0000 288.0000 14.15679949    18
CTC1_L_00136025-02
1 10783U 23628GB  26070.40832176  .00000000  00000+0  00000-0 0  9995
2 10783  60.0000 288.0000 0000000   0.0000  18.0000 14.15679949    10
CTC1_L_00136025-03
1 10784U 25571JD  26070.40832176  .00000000  00000+0  00000-0 0  9995
2 10784  60.0000 288.0000 0000000   0.0000 108.0000 14.15679949    11
CTC1_L_00136025-04
1 10785U 25748XA  26070.40832176  .00000000  00000+0  00000-0 0  9992
2 10785  60.0000 288.0000 0000000   0.0000 198.0000 14.15679949    11
CTC1_L_00136026-01
1 10786U 26922KF  26070.40832176  .00000000  00000+0  00000-0 0  9998
2 10786  60.0000 300.0000 0000000   0.0000 300.0000 14.15679949    12
CTC1_L_00136026-02
1 10787U 26839UE  26070.40832176  .00000000  00000+0  00000-0 0  9996
2 10787  60.0000 300.0000 0000000   0.0000  30.0000 14.15679949    13
CTC1_L_00136026-03
1 10788U 23590VD  26070.40832176  .00000000  00000+0  00000-0 0  9998
2 10788  60.0000 300.0000 0000000   0.0000 120.0000 14.15679949    14
CTC1_L_00136026-04
1 10789U 24917JM  26070.40832176  .00000000  00000+0  00000-0 0  9993
2 10789  60.0000 300.0000 0000000   0.0000 210.0000 14.15679949    15
CTC1_L_00136027-01
1 10790U 23854I   26070.40832176  .00000000  00000+0  00000-0 0  9994
2 10790  60.0000 312.0000 0000000   0.0000 312.0000 14.15679949    13
CTC1_L_00136027-02
1 10791U 22458UL  26070.40832176  .00000000  00000+0  00000-0 0  9994
2 10791  60.0000 312.0000 0000000   0.0000  42.0000 14.15679949    14
CTC1_L_00136027-03
1 10792U 25068LY  26070.40832176  .00000000  00000+0  00000-0 0  9995
2 10792  60.0000 312.0000 0000000   0.0000 132.0000 14.15679949    15
CTC1_L_00136027-04
1 10793U 25276EF  26070.40832176  .00000000  00000+0  00000-0 0  9997
2 10793  60.0000 312.0000 0000000   0.0000 222.0000 14.15679949    16
CTC1_L_00136028-01
1 10794U 24791CU  26070.40832176  .00000000  00000+0  00000-0 0  9999
2 10794  60.0000 324.0000 0000000   0.0000 324.0000 14.15679949    13
CTC1_L_00136028-02
1 10795U 25930KZ  26070.40832176  .00000000  00000+0  00000-0 0  9996
2 10795  60.0000 324.0000 0000000   0.0000  54.0000 14.15679949    14
CTC1_L_00136028-03
1 10796U 25265QV  26070.40832176  .00000000  00000+0  00000-0 0  9998
2 10796  60.0000 324.0000 0000000   0.0000 144.0000 14.15679949    15
CTC1_L_00136028-04
1 10797U 26606JY  26070.40832176  .00000000  00000+0  00000-0 0  9999
2 10797  60.0000 324.0000 0000000   0.0000 234.0000 14.15679949    16
CTC1_L_00136029-01
1 10798U 24440SK  26070.40832176  .00000000  00000+0  00000-0 0  9994
2 10798  60.0000 336.0000 0000000   0.0000 336.0000 14.15679949    13
CTC1_L_00136029-02
1 10799U 24392FB  26070.40832176  .00000000  00000+0  00000-0 0  9991
2 10799  60.0000 336.0000 0000000   0.0000  66.0000 14.15679949    14
CTC1_L_00136029-03
1 10800U 25953OL  26070.40832176  .00000000  00000+0  00000-0 0  9998
2 10800  60.0000 336.0000 0000000   0.0000 156.0000 14.15679949    17
CTC1_L_00136029-04
1 10801U 24801ZF  26070.40832176  .00000000  00000+0  00000-0 0  9990
2 10801  60.0000 336.0000 0000000   0.0000 246.0000 14.15679949    18
CTC1_L_00136030-01
1 10802U 22986YU  26070.40832176  .00000000  00000+0  00000-0 0  9993
2 10802  60.0000 348.0000 0000000   0.0000 348.0000 14.15679949    15
CTC1_L_00136030-02
1 10803U 26531LK  26070.40832176  .00000000  00000+0  00000-0 0  9994
2 10803  60.0000 348.0000 0000000   0.0000  78.0000 14.15679949    16
CTC1_L_00136030-03
1 10804U 24278FD  26070.40832176  .00000000  00000+0  00000-0 0  9991
2 10804  60.0000 348.0000 0000000   0.0000 168.0000 14.15679949    17
CTC1_L_00136030-04
1 10805U 25673PG  26070.40832176  .00000000  00000+0  00000-0 0  9992
2 10805  60.0000 348.0000 0000000   0.0000 258.0000 14.15679949    18
